     2.100          NAVIGATION                              RINEX VERSION / TYPE
fic2rin                                 01/08/2013 00:22:00 PGM / RUN BY / DATE
                                                            END OF HEADER
23 13  1  7  7 59 44.0  .126358587295D-03 -.375166564481D-11  .000000000000D+00
     .200000000000D+02  .110968750000D+03  .459662003910D-08  .867249174558D+00
     .582449138165D-05  .812279747333D-02  .530108809471D-05  .515377234459D+04
     .115184000000D+06 -.204890966415D-07 -.313342495228D+01  .137835741043D-06
     .957815913700D+00  .274468750000D+03 -.291628159918D+01 -.835534803378D-08
     .144648882349D-09  .100000000000D+01  .172200000000D+04  .000000000000D+00
     .240000000000D+01  .000000000000D+00 -.204890966415D-07  .200000000000D+02
     .108006000000D+06  .400000000000D+01
 1 13  1  7  8  0  0.0  .291916076094D-03  .227373675443D-11  .000000000000D+00
     .990000000000D+02 -.219062500000D+02  .488127475326D-08 -.366353878624D+00
    -.127591192722D-05  .153717759531D-02  .722147524357D-05  .515369991493D+04
     .115200000000D+06  .409781932831D-07  .104178666097D+01 -.372529029846D-08
     .959859282563D+00  .238187500000D+03  .493592012431D+00 -.815248244076D-08
    -.356800576462D-09  .100000000000D+01  .172200000000D+04  .000000000000D+00
     .340000000000D+01  .000000000000D+00  .838190317154D-08  .990000000000D+02
     .108006000000D+06  .400000000000D+01
 2 13  1  7  8  0  0.0  .413998030126D-03  .136424205266D-11  .000000000000D+00
     .860000000000D+02 -.205625000000D+02  .542879755978D-08  .619791702618D+00
    -.962987542152D-06  .118408523267D-01  .671669840813D-05  .515358082008D+04
     .115200000000D+06  .186264514923D-08  .102318517630D+01  .206753611565D-06
     .938390033723D+00  .239031250000D+03 -.269501300289D+01 -.856571393922D-08
    -.379301513716D-09  .100000000000D+01  .172200000000D+04  .000000000000D+00
     .240000000000D+01  .000000000000D+00 -.176951289177D-07  .860000000000D+02
     .108006000000D+06  .400000000000D+01
 4 13  1  7  8  0  0.0  .977804884315D-04  .111413100967D-10  .000000000000D+00
     .101000000000D+03 -.284375000000D+02  .531379276937D-08 -.239349671854D+01
    -.151619315147D-05  .104108380619D-01  .672973692417D-05  .515371803093D+04
     .115200000000D+06  .124797224998D-06  .103979000308D+01 -.726431608200D-07
     .937422326580D+00  .236093750000D+03  .951274967049D+00 -.827070165078D-08
    -.201436962087D-09  .100000000000D+01  .172200000000D+04  .000000000000D+00
     .340000000000D+01  .000000000000D+00 -.651925802231D-08  .101000000000D+03
     .108006000000D+06  .400000000000D+01
 6 13  1  7  8  0  0.0  .397258903831D-03 -.135287336889D-10  .000000000000D+00
     .580000000000D+02 -.812500000000D+01  .520843123778D-08  .267984293154D+01
    -.294297933578D-06  .756578228902D-02  .800378620625D-05  .515368316269D+04
     .115200000000D+06 -.521540641785D-07 -.656966899937D-01  .191852450371D-06
     .940245116252D+00  .212750000000D+03 -.398339796840D+00 -.821998525252D-08
     .456447584303D-09  .100000000000D+01  .172200000000D+04  .000000000000D+00
     .240000000000D+01  .000000000000D+00 -.512227416039D-08  .580000000000D+02
     .108006000000D+06  .400000000000D+01
 7 13  1  7  8  0  0.0  .166067387909D-03  .443378667114D-11  .000000000000D+00
     .450000000000D+02 -.472187500000D+02  .436089593453D-08 -.773435052789D+00
    -.246055424213D-05  .604871439282D-02  .281631946564D-05  .515371226311D+04
     .115200000000D+06  .189989805222D-06 -.208085924903D+01 -.149011611938D-07
     .975666375735D+00  .330750000000D+03 -.292255797563D+01 -.828427364468D-08
    -.882179603464D-10  .100000000000D+01  .172200000000D+04  .000000000000D+00
     .240000000000D+01  .000000000000D+00 -.111758708954D-07  .450000000000D+02
     .108006000000D+06  .400000000000D+01
 9 13  1  7  8  0  0.0  .211962964386D-03  .261479726760D-11  .000000000000D+00
     .580000000000D+02 -.401562500000D+02  .427624955153D-08 -.968127805266D+00
    -.192783772945D-05  .170683668694D-01  .379420816898D-05  .515283478546D+04
     .115200000000D+06 -.283122062683D-06 -.210502404732D+01  .100582838058D-06
     .984344669107D+00  .325812500000D+03  .163527066242D+01 -.841320758672D-08
    -.489306095849D-10  .100000000000D+01  .172200000000D+04  .000000000000D+00
     .240000000000D+01  .000000000000D+00 -.558793544769D-08  .580000000000D+02
     .108006000000D+06  .400000000000D+01
11 13  1  7  8  0  0.0 -.341059174389D-03 -.375166564481D-11  .000000000000D+00
     .550000000000D+02 -.120937500000D+02  .678671126519D-08 -.573102942758D+00
    -.501051545143D-06  .138153432636D-01  .579655170441D-05  .515367249870D+04
     .115200000000D+06 -.763684511185D-07  .755169366327D+00  .193715095520D-06
     .888462841369D+00  .227875000000D+03  .113757602936D+01 -.935074663899D-08
    -.957182727646D-10  .100000000000D+01  .172200000000D+04  .000000000000D+00
     .240000000000D+01  .000000000000D+00 -.116415321827D-07  .550000000000D+02
     .108006000000D+06  .400000000000D+01
13 13  1  7  8  0  0.0  .154369976372D-03 -.284217094304D-11  .000000000000D+00
     .650000000000D+02  .996562500000D+02  .401552440557D-08  .166287419741D+01
     .513531267643D-05  .487254932523D-02  .493787229061D-05  .515357318115D+04
     .115200000000D+06  .484287738800D-07 -.304904545691D+01 -.111758708954D-07
     .983531735770D+00  .294000000000D+03  .206541139002D+01 -.800283335013D-08
     .197508227010D-09  .100000000000D+01  .172200000000D+04  .000000000000D+00
     .240000000000D+01  .000000000000D+00 -.111758708954D-07  .650000000000D+02
     .108006000000D+06  .400000000000D+01
14 13  1  7  8  0  0.0  .219275243580D-03  .454747350886D-12  .000000000000D+00
     .620000000000D+02  .964375000000D+02  .420946105524D-08  .181287265354D+01
     .502541661263D-05  .672507926356D-02  .444799661636D-05  .515369469452D+04
     .115200000000D+06 -.106170773506D-06 -.307729517598D+01 -.212341547012D-06
     .976264413720D+00  .299281250000D+03 -.201434880354D+01 -.815605401810D-08
     .239652839646D-09  .100000000000D+01  .172200000000D+04  .000000000000D+00
     .240000000000D+01  .000000000000D+00 -.884756445885D-08  .620000000000D+02
     .108006000000D+06  .400000000000D+01
15 13  1  7  8  0  0.0 -.104421284050D-03 -.113686837722D-11  .000000000000D+00
     .370000000000D+02  .107000000000D+03  .487841749138D-08  .137103225761D+01
     .564754009247D-05  .521487765945D-02  .498630106449D-05  .515369990158D+04
     .115200000000D+06  .931322574615D-08  .311071985365D+01  .875443220139D-07
     .942944606799D+00  .272250000000D+03  .101565096240D+00 -.841285042899D-08
     .650027076237D-10  .100000000000D+01  .172200000000D+04  .000000000000D+00
     .240000000000D+01  .000000000000D+00 -.102445483208D-07  .370000000000D+02
     .108006000000D+06  .400000000000D+01
16 13  1  7  8  0  0.0 -.251575373113D-03 -.341060513165D-12  .000000000000D+00
     .770000000000D+02 -.889687500000D+02  .388587614805D-08  .298669817345D+01
    -.448897480965D-05  .678660033736D-02  .106059014797D-04  .515356673813D+04
     .115200000000D+06 -.121071934700D-06 -.100432877960D+01  .186264514923D-07
     .983246117107D+00  .186781250000D+03  .264409627665D-01 -.759174479807D-08
     .206080012631D-09  .100000000000D+01  .172200000000D+04  .000000000000D+00
     .240000000000D+01  .000000000000D+00 -.977888703346D-08  .770000000000D+02
     .108006000000D+06  .400000000000D+01
17 13  1  7  8  0  0.0  .620307400823D-04 -.375166564481D-11  .000000000000D+00
     .300000000000D+02 -.771875000000D+01  .457411910185D-08  .200572047906D+01
    -.506639480591D-06  .798612250946D-02  .819377601147D-05  .515377986336D+04
     .115200000000D+06 -.208616256714D-06  .337267395284D-01 -.165775418282D-06
     .964753991408D+00  .225468750000D+03 -.226460262145D+01 -.796818904991D-08
     .414660129402D-09  .100000000000D+01  .172200000000D+04  .000000000000D+00
     .240000000000D+01  .000000000000D+00 -.107102096081D-07  .300000000000D+02
     .108006000000D+06  .400000000000D+01
18 13  1  7  8  0  0.0  .233173836023D-03  .181898940355D-11  .000000000000D+00
     .940000000000D+02  .613125000000D+02  .487913180685D-08 -.278368992982D+01
     .309012830257D-05  .136412640568D-01  .106282532215D-04  .515375887299D+04
     .115200000000D+06  .106170773506D-06  .209356630469D+01 -.130385160446D-06
     .927910468338D+00  .155250000000D+03 -.213122900629D+01 -.789318592573D-08
    -.211080220910D-09  .100000000000D+01  .172200000000D+04  .000000000000D+00
     .240000000000D+01  .000000000000D+00 -.107102096081D-07  .940000000000D+02
     .108006000000D+06  .400000000000D+01
19 13  1  7  8  0  0.0 -.337705016136D-03 -.329691829393D-11  .000000000000D+00
     .250000000000D+02 -.965625000000D+01  .482448667352D-08  .128876111832D+01
    -.234693288803D-06  .877926219255D-02  .770017504692D-05  .515364870262D+04
     .115200000000D+06  .465661287308D-07  .860624377831D-01  .109896063805D-06
     .962021510595D+00  .230281250000D+03  .275793144760D+00 -.814926802115D-08
     .259296515026D-09  .100000000000D+01  .172200000000D+04  .000000000000D+00
     .240000000000D+01  .000000000000D+00 -.144354999065D-07  .250000000000D+02
     .108006000000D+06  .400000000000D+01
20 13  1  7  8  0  0.0  .791326165199D-04  .136424205266D-11  .000000000000D+00
     .550000000000D+02  .459062500000D+02  .496734976720D-08 -.220903923144D+01
     .240653753281D-05  .544843578245D-02  .113062560558D-04  .515356491661D+04
     .115200000000D+06  .614672899246D-07  .203998773317D+01 -.707805156708D-07
     .928521147399D+00  .143812500000D+03  .128185913812D+01 -.809105131048D-08
    -.357872049664D-09  .100000000000D+01  .172200000000D+04  .000000000000D+00
     .240000000000D+01  .000000000000D+00 -.791624188423D-08  .550000000000D+02
     .108006000000D+06  .400000000000D+01
